{
  "type": "FeatureCollection",
  "features": [
    {
      "type": "Feature",
      "properties": {
        "norad_id": 66546,
        "name": "SHIJIAN-30B",
        "group": "last-30-days",
        "lat": -49.41529548071908,
        "lon": -138.7471274437737,
        "alt_km": 525.9843191886075,
        "timestamp": "2025-12-12T09:49:07.481144+00:00",
        "meta_object_name": "SHIJIAN-30B",
        "meta_object_id": "2025-266B",
        "meta_epoch": "2025-12-12T03:56:55.177728",
        "meta_mean_motion": 15.1539128,
        "meta_eccentricity": 0.0010467,
        "meta_inclination": 51.7965,
        "meta_ra_of_asc_node": 335.5651,
        "meta_arg_of_pericenter": 357.4279,
        "meta_mean_anomaly": 2.6642,
        "meta_ephemeris_type": 0,
        "meta_classification_type": "U",
        "meta_norad_cat_id": 66546,
        "meta_element_set_no": 999,
        "meta_rev_at_epoch": 349,
        "meta_bstar": 0.00097033,
        "meta_mean_motion_dot": 0.00018311,
        "meta_mean_motion_ddot": 0,
        "tle_line1": "1 66546U 25266B   25346.16452752  .00018311  00000+0  97033-3 0  9998",
        "tle_line2": "2 66546  51.7965 335.5651 0010467 357.4279   2.6642 15.15391280  3496"
      },
      "geometry": {
        "type": "Point",
        "coordinates": [
          -138.7471274437737,
          -49.41529548071908
        ]
      }
    },
    {
      "type": "Feature",
      "properties": {
        "norad_id": 66547,
        "name": "SHIJIAN-30C",
        "group": "last-30-days",
        "lat": -48.73332818008249,
        "lon": -141.74500891023743,
        "alt_km": 524.9312412290574,
        "timestamp": "2025-12-12T09:49:07.481155+00:00",
        "meta_object_name": "SHIJIAN-30C",
        "meta_object_id": "2025-266C",
        "meta_epoch": "2025-12-12T03:57:29.106144",
        "meta_mean_motion": 15.1549373,
        "meta_eccentricity": 0.0011353,
        "meta_inclination": 51.7975,
        "meta_ra_of_asc_node": 335.5693,
        "meta_arg_of_pericenter": 348.9329,
        "meta_mean_anomaly": 11.1396,
        "meta_ephemeris_type": 0,
        "meta_classification_type": "U",
        "meta_norad_cat_id": 66547,
        "meta_element_set_no": 999,
        "meta_rev_at_epoch": 349,
        "meta_bstar": 0.00084284,
        "meta_mean_motion_dot": 0.00015909,
        "meta_mean_motion_ddot": 0,
        "tle_line1": "1 66547U 25266C   25346.16492021  .00015909  00000+0  84284-3 0  9996",
        "tle_line2": "2 66547  51.7975 335.5693 0011353 348.9329  11.1396 15.15493730  3494"
      },
      "geometry": {
        "type": "Point",
        "coordinates": [
          -141.74500891023743,
          -48.73332818008249
        ]
      }
    },
    {
      "type": "Feature",
      "properties": {
        "norad_id": 66548,
        "name": "CZ-2C R/B",
        "group": "last-30-days",
        "lat": 14.195316471688121,
        "lon": -15.761685431701336,
        "alt_km": 525.514366744711,
        "timestamp": "2025-12-12T09:49:07.481165+00:00",
        "meta_object_name": "CZ-2C R/B",
        "meta_object_id": "2025-266D",
        "meta_epoch": "2025-12-12T03:28:07.480128",
        "meta_mean_motion": 15.30158038,
        "meta_eccentricity": 0.0083931,
        "meta_inclination": 52.0554,
        "meta_ra_of_asc_node": 334.1159,
        "meta_arg_of_pericenter": 170.9581,
        "meta_mean_anomaly": 189.294,
        "meta_ephemeris_type": 0,
        "meta_classification_type": "U",
        "meta_norad_cat_id": 66548,
        "meta_element_set_no": 999,
        "meta_rev_at_epoch": 352,
        "meta_bstar": 0.00046315,
        "meta_mean_motion_dot": 0.00014902,
        "meta_mean_motion_ddot": 0,
        "tle_line1": "1 66548U 25266D   25346.14453102  .00014902  00000+0  46315-3 0  9997",
        "tle_line2": "2 66548  52.0554 334.1159 0083931 170.9581 189.2940 15.30158038  3520"
      },
      "geometry": {
        "type": "Point",
        "coordinates": [
          -15.761685431701336,
          14.195316471688121
        ]
      }
    },
    {
      "type": "Feature",
      "properties": {
        "norad_id": 66549,
        "name": "SHIJIAN-28",
        "group": "last-30-days",
        "lat": 62.140670198123374,
        "lon": -116.7245272850822,
        "alt_km": 885.6181637420877,
        "timestamp": "2025-12-12T09:49:07.481176+00:00",
        "meta_object_name": "SHIJIAN-28",
        "meta_object_id": "2025-277A",
        "meta_epoch": "2025-12-11T21:50:26.664576",
        "meta_mean_motion": 14.45036477,
        "meta_eccentricity": 0.0226533,
        "meta_inclination": 66.663,
        "meta_ra_of_asc_node": 189.8532,
        "meta_arg_of_pericenter": 275.2622,
        "meta_mean_anomaly": 82.2673,
        "meta_ephemeris_type": 0,
        "meta_classification_type": "U",
        "meta_norad_cat_id": 66549,
        "meta_element_set_no": 999,
        "meta_rev_at_epoch": 42374,
        "meta_bstar": 0.00018715,
        "meta_mean_motion_dot": 7.83e-06,
        "meta_mean_motion_ddot": 0,
        "tle_line1": "1 66549U 25277A   25345.91003084  .00000783  00000+0  18715-3 0  9999",
        "tle_line2": "2 66549  66.6630 189.8532 0226533 275.2622  82.2673 14.45036477423741"
      },
      "geometry": {
        "type": "Point",
        "coordinates": [
          -116.7245272850822,
          62.140670198123374
        ]
      }
    },
    {
      "type": "Feature",
      "properties": {
        "norad_id": 66550,
        "name": "CZ-7A R/B",
        "group": "last-30-days",
        "lat": 9.741393768525432,
        "lon": -48.04341761590293,
        "alt_km": 19984.743852917847,
        "timestamp": "2025-12-12T09:49:07.481194+00:00",
        "meta_object_name": "CZ-7A R/B",
        "meta_object_id": "2025-277B",
        "meta_epoch": "2025-12-11T12:15:39.945600",
        "meta_mean_motion": 2.65298958,
        "meta_eccentricity": 0.70570413,
        "meta_inclination": 14.4036,
        "meta_ra_of_asc_node": 270.5234,
        "meta_arg_of_pericenter": 187.6434,
        "meta_mean_anomaly": 149.2328,
        "meta_ephemeris_type": 0,
        "meta_classification_type": "U",
        "meta_norad_cat_id": 66550,
        "meta_element_set_no": 999,
        "meta_rev_at_epoch": 31,
        "meta_bstar": 0.0010583352,
        "meta_mean_motion_dot": 0.01545385,
        "meta_mean_motion_ddot": 2.47923e-06,
        "tle_line1": "1 66550U 25277B   25345.51087900  .01545385  24792-5  10583-2 0  9993",
        "tle_line2": "2 66550  14.4036 270.5234 7057041 187.6434 149.2328  2.65298958   319"
      },
      "geometry": {
        "type": "Point",
        "coordinates": [
          -48.04341761590293,
          9.741393768525432
        ]
      }
    },
    {
      "type": "Feature",
      "properties": {
        "norad_id": 66551,
        "name": "USA 568",
        "group": "last-30-days",
        "lat": -18.079799041809668,
        "lon": 23.050805145721256,
        "alt_km": 234.56033355293948,
        "timestamp": "2025-12-12T09:49:07.481206+00:00",
        "meta_object_name": "USA 568",
        "meta_object_id": "2024-134K",
        "meta_epoch": "2025-12-02T16:00:03.000096",
        "meta_mean_motion": 15.87051116,
        "meta_eccentricity": 7.17e-05,
        "meta_inclination": 53.1571,
        "meta_ra_of_asc_node": 236.7807,
        "meta_arg_of_pericenter": 110.7411,
        "meta_mean_anomaly": 313.9012,
        "meta_ephemeris_type": 0,
        "meta_classification_type": "U",
        "meta_norad_cat_id": 66551,
        "meta_element_set_no": 999,
        "meta_rev_at_epoch": 262,
        "meta_bstar": -0.0074303,
        "meta_mean_motion_dot": -0.01709685,
        "meta_mean_motion_ddot": 0,
        "tle_line1": "1 66551U 24134K   25336.66670139 -.01709685  00000+0 -74303-2 0  9990",
        "tle_line2": "2 66551  53.1571 236.7807 0000717 110.7411 313.9012 15.87051116  2624"
      },
      "geometry": {
        "type": "Point",
        "coordinates": [
          23.050805145721256,
          -18.079799041809668
        ]
      }
    },
    {
      "type": "Feature",
      "properties": {
        "norad_id": 66554,
        "name": "GLOBAL-33",
        "group": "last-30-days",
        "lat": 22.52796356820829,
        "lon": 86.32906648291193,
        "alt_km": 464.376508913052,
        "timestamp": "2025-12-12T09:49:07.481216+00:00",
        "meta_object_name": "GLOBAL-33",
        "meta_object_id": "2025-267A",
        "meta_epoch": "2025-12-11T14:53:12.552288",
        "meta_mean_motion": 15.31613043,
        "meta_eccentricity": 0.00043712,
        "meta_inclination": 42.0212,
        "meta_ra_of_asc_node": 63.4559,
        "meta_arg_of_pericenter": 46.3547,
        "meta_mean_anomaly": 313.7652,
        "meta_ephemeris_type": 0,
        "meta_classification_type": "U",
        "meta_norad_cat_id": 66554,
        "meta_element_set_no": 999,
        "meta_rev_at_epoch": 323,
        "meta_bstar": 0.00061477883,
        "meta_mean_motion_dot": 0.00018974,
        "meta_mean_motion_ddot": 0,
        "tle_line1": "1 66554U 25267A   25345.62028417  .00018974  00000+0  61478-3 0  9994",
        "tle_line2": "2 66554  42.0212  63.4559 0004371  46.3547 313.7652 15.31613043  3237"
      },
      "geometry": {
        "type": "Point",
        "coordinates": [
          86.32906648291193,
          22.52796356820829
        ]
      }
    }
  ]
}